{"type": "FeatureCollection", "features": [ {"type": "Feature", "properties": {"norad_id": 42741, "name": "EUTELSAT 172B", "group": "eutelsat", "lat": 0.0016162668954119315, "lon": 0.2720669778589045, "alt_km": 35786.7214697809, "timestamp": "2025-12-04T07:39:35.841658+00:00", "meta": {"OBJECT_NAME": "EUTELSAT 172B", "OBJECT_ID": "2017-029B", "EPOCH": "2025-12-03T17:18:38.540160", "MEAN_MOTION": 1.00271292, "ECCENTRICITY": 1.907e-05, "INCLINATION": 0.0029, "RA_OF_ASC_NODE": 53.9145, "ARG_OF_PERICENTER": 175.2679, "MEAN_ANOMALY": 275.2829, "EPHEMERIS_TYPE": 0, "CLASSIFICATION_TYPE": "U", "NORAD_CAT_ID": 42741, "ELEMENT_SET_NO": 999, "REV_AT_EPOCH": 3177, "BSTAR": 0, "MEAN_MOTION_DOT": 1.2e-07, "MEAN_MOTION_DDOT": 0}, "tle": {"line1": "1 42741U 17029B   25337.72127940  .00000012  00000+0  00000+0 0  9990", "line2": "2 42741   0.0029  53.9145 0000190 175.2679 275.2829  1.00271292 31772"}}, "geometry": {"type": "Point", "coordinates": [0.2720669778589045, 0.0016162668954119315]}}, {"type": "Feature", "properties": {"norad_id": 44334, "name": "EUTELSAT 7C", "group": "eutelsat", "lat": -0.011302225422889134, "lon": -164.77167503644733, "alt_km": 35775.74498668446, "timestamp": "2025-12-04T07:39:35.841669+00:00", "meta": {"OBJECT_NAME": "EUTELSAT 7C", "OBJECT_ID": "2019-034B", "EPOCH": "2025-12-03T18:20:38.512032", "MEAN_MOTION": 1.00269357, "ECCENTRICITY": 0.00034365, "INCLINATION": 0.076, "RA_OF_ASC_NODE": 180.8017, "ARG_OF_PERICENTER": 55.3226, "MEAN_ANOMALY": 118.871, "EPHEMERIS_TYPE": 0, "CLASSIFICATION_TYPE": "U", "NORAD_CAT_ID": 44334, "ELEMENT_SET_NO": 999, "REV_AT_EPOCH": 487, "BSTAR": 0, "MEAN_MOTION_DOT": 6.5e-07, "MEAN_MOTION_DDOT": 0}, "tle": {"line1": "1 44334U 19034B   25337.76433463  .00000065  00000+0  00000+0 0  9990", "line2": "2 44334   0.0760 180.8017 0003436  55.3226 118.8710  1.00269357  4875"}}, "geometry": {"type": "Point", "coordinates": [-164.77167503644733, -0.011302225422889134]}}, {"type": "Feature", "properties": {"norad_id": 44624, "name": "EUTELSAT 5 WEST B", "group": "eutelsat", "lat": -0.05674177235559133, "lon": -176.7483515860143, "alt_km": 35780.609758269944, "timestamp": "2025-12-04T07:39:35.841679+00:00", "meta": {"OBJECT_NAME": "EUTELSAT 5 WEST B", "OBJECT_ID": "2019-067A", "EPOCH": "2025-12-03T17:09:26.694720", "MEAN_MOTION": 1.00272793, "ECCENTRICITY": 0.00037115, "INCLINATION": 0.0708, "RA_OF_ASC_NODE": 328.8657, "ARG_OF_PERICENTER": 285.1903, "MEAN_ANOMALY": 71.1223, "EPHEMERIS_TYPE": 0, "CLASSIFICATION_TYPE": "U", "NORAD_CAT_ID": 44624, "ELEMENT_SET_NO": 999, "REV_AT_EPOCH": 2247, "BSTAR": 0, "MEAN_MOTION_DOT": -2.4e-07, "MEAN_MOTION_DDOT": 0}, "tle": {"line1": "1 44624U 19067A   25337.71489230 -.00000024  00000+0  00000+0 0  9992", "line2": "2 44624   0.0708 328.8657 0003711 285.1903  71.1223  1.00272793 22478"}}, "geometry": {"type": "Point", "coordinates": [-176.7483515860143, -0.05674177235559133]}}, {"type": "Feature", "properties": {"norad_id": 45027, "name": "EUTELSAT KONNECT", "group": "eutelsat", "lat": 0.04087780801941446, "lon": -164.56757647455004, "alt_km": 35786.89802935202, "timestamp": "2025-12-04T07:39:35.841690+00:00", "meta": {"OBJECT_NAME": "EUTELSAT KONNECT", "OBJECT_ID": "2020-005B", "EPOCH": "2025-12-03T18:20:38.512032", "MEAN_MOTION": 1.00268582, "ECCENTRICITY": 0.00017852, "INCLINATION": 0.0692, "RA_OF_ASC_NODE": 99.0602, "ARG_OF_PERICENTER": 186.374, "MEAN_ANOMALY": 69.7611, "EPHEMERIS_TYPE": 0, "CLASSIFICATION_TYPE": "U", "NORAD_CAT_ID": 45027, "ELEMENT_SET_NO": 999, "REV_AT_EPOCH": 2236, "BSTAR": 0, "MEAN_MOTION_DOT": 6.6e-07, "MEAN_MOTION_DDOT": 0}, "tle": {"line1": "1 45027U 20005B   25337.76433463  .00000066  00000+0  00000+0 0  9991", "line2": "2 45027   0.0692  99.0602 0001785 186.3740  69.7611  1.00268582 22368"}}, "geometry": {"type": "Point", "coordinates": [-164.56757647455004, 0.04087780801941446]}}, {"type": "Feature", "properties": {"norad_id": 49056, "name": "EUTELSAT QUANTUM", "group": "eutelsat", "lat": -0.029675189647233115, "lon": -124.03843390446536, "alt_km": 35772.10768574175, "timestamp": "2025-12-04T07:39:35.841700+00:00", "meta": {"OBJECT_NAME": "EUTELSAT QUANTUM", "OBJECT_ID": "2021-069B", "EPOCH": "2025-12-03T20:27:38.515104", "MEAN_MOTION": 1.00271917, "ECCENTRICITY": 0.00038004, "INCLINATION": 0.0193, "RA_OF_ASC_NODE": 19.889, "ARG_OF_PERICENTER": 246.5875, "MEAN_ANOMALY": 161.08, "EPHEMERIS_TYPE": 0, "CLASSIFICATION_TYPE": "U", "NORAD_CAT_ID": 49056, "ELEMENT_SET_NO": 999, "REV_AT_EPOCH": 1596, "BSTAR": 0, "MEAN_MOTION_DOT": 1.43e-06, "MEAN_MOTION_DDOT": 0}, "tle": {"line1": "1 49056U 21069B   25337.85252911  .00000143  00000+0  00000+0 0  9991", "line2": "2 49056   0.0193  19.8890 0003800 246.5875 161.0800  1.00271917 15967"}}, "geometry": {"type": "Point", "coordinates": [-124.03843390446536, -0.029675189647233115]}}, {"type": "Feature", "properties": {"norad_id": 53765, "name": "EUTELSAT KONNECT VHTS", "group": "eutelsat", "lat": 0.034402986919927464, "lon": -169.06621157892792, "alt_km": 35777.76793471717, "timestamp": "2025-12-04T07:39:35.841711+00:00", "meta": {"OBJECT_NAME": "EUTELSAT KONNECT VHTS", "OBJECT_ID": "2022-110A", "EPOCH": "2025-12-03T05:12:28.480320", "MEAN_MOTION": 1.00269007, "ECCENTRICITY": 0.0002764, "INCLINATION": 0.0603, "RA_OF_ASC_NODE": 107.1016, "ARG_OF_PERICENTER": 123.1613, "MEAN_ANOMALY": 282.8564, "EPHEMERIS_TYPE": 0, "CLASSIFICATION_TYPE": "U", "NORAD_CAT_ID": 53765, "ELEMENT_SET_NO": 999, "REV_AT_EPOCH": 486, "BSTAR": 0, "MEAN_MOTION_DOT": 3.6e-07, "MEAN_MOTION_DDOT": 0}, "tle": {"line1": "1 53765U 22110A   25337.21699630  .00000036  00000+0  00000+0 0  9995", "line2": "2 53765   0.0603 107.1016 0002764 123.1613 282.8564  1.00269007  4867"}}, "geometry": {"type": "Point", "coordinates": [-169.06621157892792, 0.034402986919927464]}}, {"type": "Feature", "properties": {"norad_id": 54048, "name": "EUTELSAT HOTBIRD 13F", "group": "eutelsat", "lat": -0.0728350936441503, "lon": -158.73138488667303, "alt_km": 35793.302238565724, "timestamp": "2025-12-04T07:39:35.841721+00:00", "meta": {"OBJECT_NAME": "EUTELSAT HOTBIRD 13F", "OBJECT_ID": "2022-134A", "EPOCH": "2025-12-02T19:57:38.448864", "MEAN_MOTION": 1.00271371, "ECCENTRICITY": 0.00019176, "INCLINATION": 0.0542, "RA_OF_ASC_NODE": 289.0481, "ARG_OF_PERICENTER": 66.1354, "MEAN_ANOMALY": 29.1621, "EPHEMERIS_TYPE": 0, "CLASSIFICATION_TYPE": "U", "NORAD_CAT_ID": 54048, "ELEMENT_SET_NO": 999, "REV_AT_EPOCH": 1140, "BSTAR": 0, "MEAN_MOTION_DOT": 1.07e-06, "MEAN_MOTION_DDOT": 0}, "tle": {"line1": "1 54048U 22134A   25336.83169501  .00000107  00000+0  00000+0 0  9991", "line2": "2 54048   0.0542 289.0481 0001917  66.1354  29.1621  1.00271371 11408"}}, "geometry": {"type": "Point", "coordinates": [-158.73138488667303, -0.0728350936441503]}}, {"type": "Feature", "properties": {"norad_id": 54225, "name": "EUTELSAT HOTBIRD 13G", "group": "eutelsat", "lat": -0.04323566101815941, "lon": -158.72194236304614, "alt_km": 35777.623844601156, "timestamp": "2025-12-04T07:39:35.841732+00:00", "meta": {"OBJECT_NAME": "EUTELSAT HOTBIRD 13G", "OBJECT_ID": "2022-146A", "EPOCH": "2025-12-03T00:07:14.496096", "MEAN_MOTION": 1.00271219, "ECCENTRICITY": 0.00021047, "INCLINATION": 0.0475, "RA_OF_ASC_NODE": 238.4149, "ARG_OF_PERICENTER": 306.4933, "MEAN_ANOMALY": 262.0024, "EPHEMERIS_TYPE": 0, "CLASSIFICATION_TYPE": "U", "NORAD_CAT_ID": 54225, "ELEMENT_SET_NO": 999, "REV_AT_EPOCH": 549, "BSTAR": 0, "MEAN_MOTION_DOT": 1.07e-06, "MEAN_MOTION_DDOT": 0}, "tle": {"line1": "1 54225U 22146A   25337.00502889  .00000107  00000+0  00000+0 0  9991", "line2": "2 54225   0.0475 238.4149 0002104 306.4933 262.0024  1.00271219  5499"}}, "geometry": {"type": "Point", "coordinates": [-158.72194236304614, -0.04323566101815941]}}, {"type": "Feature", "properties": {"norad_id": 54259, "name": "EUTELSAT 10B", "group": "eutelsat", "lat": 0.03139757945345132, "lon": -161.71998966693167, "alt_km": 35782.87335977299, "timestamp": "2025-12-04T07:39:35.841742+00:00", "meta": {"OBJECT_NAME": "EUTELSAT 10B", "OBJECT_ID": "2022-157A", "EPOCH": "2025-12-03T04:33:38.732832", "MEAN_MOTION": 1.00268425, "ECCENTRICITY": 0.0001038, "INCLINATION": 0.0608, "RA_OF_ASC_NODE": 103.578, "ARG_OF_PERICENTER": 72.8343, "MEAN_ANOMALY": 334.2971, "EPHEMERIS_TYPE": 0, "CLASSIFICATION_TYPE": "U", "NORAD_CAT_ID": 54259, "ELEMENT_SET_NO": 999, "REV_AT_EPOCH": 1106, "BSTAR": 0, "MEAN_MOTION_DOT": 8.7e-07, "MEAN_MOTION_DDOT": 0}, "tle": {"line1": "1 54259U 22157A   25337.19003163  .00000087  00000+0  00000+0 0  9998", "line2": "2 54259   0.0608 103.5780 0001038  72.8343 334.2971  1.00268425 11069"}}, "geometry": {"type": "Point", "coordinates": [-161.71998966693167, 0.03139757945345132]}}, {"type": "Feature", "properties": {"norad_id": 59346, "name": "EUTELSAT 36D", "group": "eutelsat", "lat": -0.04269961796407451, "lon": -135.88630589623318, "alt_km": 35785.72383068098, "timestamp": "2025-12-04T07:39:35.841752+00:00", "meta": {"OBJECT_NAME": "EUTELSAT 36D", "OBJECT_ID": "2024-059A", "EPOCH": "2025-12-03T13:55:38.715744", "MEAN_MOTION": 1.00270882, "ECCENTRICITY": 6.596e-05, "INCLINATION": 0.0224, "RA_OF_ASC_NODE": 345.8589, "ARG_OF_PERICENTER": 317.7492, "MEAN_ANOMALY": 13.8207, "EPHEMERIS_TYPE": 0, "CLASSIFICATION_TYPE": "U", "NORAD_CAT_ID": 59346, "ELEMENT_SET_NO": 999, "REV_AT_EPOCH": 618, "BSTAR": 0, "MEAN_MOTION_DOT": 0, "MEAN_MOTION_DDOT": 0}, "tle": {"line1": "1 59346U 24059A   25337.58030921  .00000000  00000+0  00000+0 0  9993", "line2": "2 59346   0.0224 345.8589 0000659 317.7492  13.8207  1.00270882  6186"}}, "geometry": {"type": "Point", "coordinates": [-135.88630589623318, -0.04269961796407451]}}]}